CTC1_L_00570001-01
1 10000U 24859FT  26075.70038194  .00000000  00000+0  00000-0 0  9990
2 10000  99.3000   0.0000 0000000   0.0000   0.0000 13.72670257    15
CTC1_L_00570001-02
1 10001U 23048DN  26075.70038194  .00000000  00000+0  00000-0 0  9990
2 10001  99.3000   0.0000 0000000   0.0000  45.0000 13.72670257    15
CTC1_L_00570001-03
1 10002U 25259SE  26075.70038194  .00000000  00000+0  00000-0 0  9997
2 10002  99.3000   0.0000 0000000   0.0000  90.0000 13.72670257    16
CTC1_L_00570001-04
1 10003U 22785JK  26075.70038194  .00000000  00000+0  00000-0 0  9999
2 10003  99.3000   0.0000 0000000   0.0000 135.0000 13.72670257    17
CTC1_L_00570001-05
1 10004U 24259LY  26075.70038194  .00000000  00000+0  00000-0 0  9998
2 10004  99.3000   0.0000 0000000   0.0000 180.0000 13.72670257    18
CTC1_L_00570001-06
1 10005U 25587KY  26075.70038194  .00000000  00000+0  00000-0 0  9994
2 10005  99.3000   0.0000 0000000   0.0000 225.0000 13.72670257    19
CTC1_L_00570001-07
1 10006U 23753PY  26075.70038194  .00000000  00000+0  00000-0 0  9998
2 10006  99.3000   0.0000 0000000   0.0000 270.0000 13.72670257    10
CTC1_L_00570001-08
1 10007U 24815IS  26075.70038194  .00000000  00000+0  00000-0 0  9999
2 10007  99.3000   0.0000 0000000   0.0000 315.0000 13.72670257    11
CTC1_L_00570002-01
1 10008U 26390ME  26075.70038194  .00000000  00000+0  00000-0 0  9990
2 10008  99.3000  12.0000 0000000   0.0000   6.0000 13.72670257    12
CTC1_L_00570002-02
1 10009U 22740FX  26075.70038194  .00000000  00000+0  00000-0 0  9996
2 10009  99.3000  12.0000 0000000   0.0000  51.0000 13.72670257    13
CTC1_L_00570002-03
1 10010U 26426JZ  26075.70038194  .00000000  00000+0  00000-0 0  9993
2 10010  99.3000  12.0000 0000000   0.0000  96.0000 13.72670257    14
CTC1_L_00570002-04
1 10011U 26470TZ  26075.70038194  .00000000  00000+0  00000-0 0  9993
2 10011  99.3000  12.0000 0000000   0.0000 141.0000 13.72670257    16
CTC1_L_00570002-05
1 10012U 25703KR  26075.70038194  .00000000  00000+0  00000-0 0  9992
2 10012  99.3000  12.0000 0000000   0.0000 186.0000 13.72670257    16
CTC1_L_00570002-06
1 10013U 25597RS  26075.70038194  .00000000  00000+0  00000-0 0  9994
2 10013  99.3000  12.0000 0000000   0.0000 231.0000 13.72670257    18
CTC1_L_00570002-07
1 10014U 26513ZJ  26075.70038194  .00000000  00000+0  00000-0 0  9994
2 10014  99.3000  12.0000 0000000   0.0000 276.0000 13.72670257    18
CTC1_L_00570002-08
1 10015U 24820YP  26075.70038194  .00000000  00000+0  00000-0 0  9994
2 10015  99.3000  12.0000 0000000   0.0000 321.0000 13.72670257    10
CTC1_L_00570003-01
1 10016U 25305KK  26075.70038194  .00000000  00000+0  00000-0 0  9994
2 10016  99.3000  24.0000 0000000   0.0000  12.0000 13.72670257    11
CTC1_L_00570003-02
1 10017U 24932VP  26075.70038194  .00000000  00000+0  00000-0 0  9990
2 10017  99.3000  24.0000 0000000   0.0000  57.0000 13.72670257    11
CTC1_L_00570003-03
1 10018U 26169GQ  26075.70038194  .00000000  00000+0  00000-0 0  9995
2 10018  99.3000  24.0000 0000000   0.0000 102.0000 13.72670257    13
CTC1_L_00570003-04
1 10019U 25230FF  26075.70038194  .00000000  00000+0  00000-0 0  9994
2 10019  99.3000  24.0000 0000000   0.0000 147.0000 13.72670257    13
CTC1_L_00570003-05
1 10020U 25151J   26075.70038194  .00000000  00000+0  00000-0 0  9998
2 10020  99.3000  24.0000 0000000   0.0000 192.0000 13.72670257    15
CTC1_L_00570003-06
1 10021U 24032GR  26075.70038194  .00000000  00000+0  00000-0 0  9996
2 10021  99.3000  24.0000 0000000   0.0000 237.0000 13.72670257    16
CTC1_L_00570003-07
1 10022U 25591KN  26075.70038194  .00000000  00000+0  00000-0 0  9998
2 10022  99.3000  24.0000 0000000   0.0000 282.0000 13.72670257    17
CTC1_L_00570003-08
1 10023U 23010N   26075.70038194  .00000000  00000+0  00000-0 0  9993
2 10023  99.3000  24.0000 0000000   0.0000 327.0000 13.72670257    18
CTC1_L_00570004-01
1 10024U 23947IM  26075.70038194  .00000000  00000+0  00000-0 0  9993
2 10024  99.3000  36.0000 0000000   0.0000  18.0000 13.72670257    19
CTC1_L_00570004-02
1 10025U 24349JT  26075.70038194  .00000000  00000+0  00000-0 0  9991
2 10025  99.3000  36.0000 0000000   0.0000  63.0000 13.72670257    10
CTC1_L_00570004-03
1 10026U 26293CU  26075.70038194  .00000000  00000+0  00000-0 0  9992
2 10026  99.3000  36.0000 0000000   0.0000 108.0000 13.72670257    11
CTC1_L_00570004-04
1 10027U 23002SA  26075.70038194  .00000000  00000+0  00000-0 0  9998
2 10027  99.3000  36.0000 0000000   0.0000 153.0000 13.72670257    12
CTC1_L_00570004-05
1 10028U 22157F   26075.70038194  .00000000  00000+0  00000-0 0  9999
2 10028  99.3000  36.0000 0000000   0.0000 198.0000 13.72670257    12
CTC1_L_00570004-06
1 10029U 23409X   26075.70038194  .00000000  00000+0  00000-0 0  9991
2 10029  99.3000  36.0000 0000000   0.0000 243.0000 13.72670257    14
CTC1_L_00570004-07
1 10030U 23198L   26075.70038194  .00000000  00000+0  00000-0 0  9998
2 10030  99.3000  36.0000 0000000   0.0000 288.0000 13.72670257    15
CTC1_L_00570004-08
1 10031U 25066UY  26075.70038194  .00000000  00000+0  00000-0 0  9995
2 10031  99.3000  36.0000 0000000   0.0000 333.0000 13.72670257    17
CTC1_L_00570005-01
1 10032U 26025GN  26075.70038194  .00000000  00000+0  00000-0 0  9992
2 10032  99.3000  48.0000 0000000   0.0000  24.0000 13.72670257    18
CTC1_L_00570005-02
1 10033U 26272RJ  26075.70038194  .00000000  00000+0  00000-0 0  9997
2 10033  99.3000  48.0000 0000000   0.0000  69.0000 13.72670257    18
CTC1_L_00570005-03
1 10034U 24383HA  26075.70038194  .00000000  00000+0  00000-0 0  9999
2 10034  99.3000  48.0000 0000000   0.0000 114.0000 13.72670257    10
CTC1_L_00570005-04
1 10035U 26590MN  26075.70038194  .00000000  00000+0  00000-0 0  9992
2 10035  99.3000  48.0000 0000000   0.0000 159.0000 13.72670257    10
CTC1_L_00570005-05
1 10036U 22770PP  26075.70038194  .00000000  00000+0  00000-0 0  9999
2 10036  99.3000  48.0000 0000000   0.0000 204.0000 13.72670257    12
CTC1_L_00570005-06
1 10037U 23220FG  26075.70038194  .00000000  00000+0  00000-0 0  9991
2 10037  99.3000  48.0000 0000000   0.0000 249.0000 13.72670257    12
CTC1_L_00570005-07
1 10038U 23956AE  26075.70038194  .00000000  00000+0  00000-0 0  9998
2 10038  99.3000  48.0000 0000000   0.0000 294.0000 13.72670257    13
CTC1_L_00570005-08
1 10039U 23214IA  26075.70038194  .00000000  00000+0  00000-0 0  9996
2 10039  99.3000  48.0000 0000000   0.0000 339.0000 13.72670257    14
CTC1_L_00570006-01
1 10040U 26452K   26075.70038194  .00000000  00000+0  00000-0 0  9995
2 10040  99.3000  60.0000 0000000   0.0000  30.0000 13.72670257    18
CTC1_L_00570006-02
1 10041U 22031FS  26075.70038194  .00000000  00000+0  00000-0 0  9995
2 10041  99.3000  60.0000 0000000   0.0000  75.0000 13.72670257    18
CTC1_L_00570006-03
1 10042U 24305EV  26075.70038194  .00000000  00000+0  00000-0 0  9992
2 10042  99.3000  60.0000 0000000   0.0000 120.0000 13.72670257    10
CTC1_L_00570006-04
1 10043U 22532PZ  26075.70038194  .00000000  00000+0  00000-0 0  9993
2 10043  99.3000  60.0000 0000000   0.0000 165.0000 13.72670257    10
CTC1_L_00570006-05
1 10044U 26268UK  26075.70038194  .00000000  00000+0  00000-0 0  9994
2 10044  99.3000  60.0000 0000000   0.0000 210.0000 13.72670257    12
CTC1_L_00570006-06
1 10045U 23535KY  26075.70038194  .00000000  00000+0  00000-0 0  9999
2 10045  99.3000  60.0000 0000000   0.0000 255.0000 13.72670257    12
CTC1_L_00570006-07
1 10046U 26655NA  26075.70038194  .00000000  00000+0  00000-0 0  9996
2 10046  99.3000  60.0000 0000000   0.0000 300.0000 13.72670257    14
CTC1_L_00570006-08
1 10047U 22726UX  26075.70038194  .00000000  00000+0  00000-0 0  9992
2 10047  99.3000  60.0000 0000000   0.0000 345.0000 13.72670257    14
CTC1_L_00570007-01
1 10048U 25713PV  26075.70038194  .00000000  00000+0  00000-0 0  9992
2 10048  99.3000  72.0000 0000000   0.0000  36.0000 13.72670257    15
CTC1_L_00570007-02
1 10049U 22226MG  26075.70038194  .00000000  00000+0  00000-0 0  9999
2 10049  99.3000  72.0000 0000000   0.0000  81.0000 13.72670257    16
CTC1_L_00570007-03
1 10050U 22518YZ  26075.70038194  .00000000  00000+0  00000-0 0  9995
2 10050  99.3000  72.0000 0000000   0.0000 126.0000 13.72670257    18
CTC1_L_00570007-04
1 10051U 23096UU  26075.70038194  .00000000  00000+0  00000-0 0  9998
2 10051  99.3000  72.0000 0000000   0.0000 171.0000 13.72670257    19
CTC1_L_00570007-05
1 10052U 25662UM  26075.70038194  .00000000  00000+0  00000-0 0  9990
2 10052  99.3000  72.0000 0000000   0.0000 216.0000 13.72670257    10
CTC1_L_00570007-06
1 10053U 23048H   26075.70038194  .00000000  00000+0  00000-0 0  9997
2 10053  99.3000  72.0000 0000000   0.0000 261.0000 13.72670257    11
CTC1_L_00570007-07
1 10054U 22767GP  26075.70038194  .00000000  00000+0  00000-0 0  9995
2 10054  99.3000  72.0000 0000000   0.0000 306.0000 13.72670257    12
CTC1_L_00570007-08
1 10055U 22807FF  26075.70038194  .00000000  00000+0  00000-0 0  9991
2 10055  99.3000  72.0000 0000000   0.0000 351.0000 13.72670257    13
CTC1_L_00570008-01
1 10056U 26114JY  26075.70038194  .00000000  00000+0  00000-0 0  9997
2 10056  99.3000  84.0000 0000000   0.0000  42.0000 13.72670257    14
CTC1_L_00570008-02
1 10057U 23573XB  26075.70038194  .00000000  00000+0  00000-0 0  9994
2 10057  99.3000  84.0000 0000000   0.0000  87.0000 13.72670257    14
CTC1_L_00570008-03
1 10058U 24889GQ  26075.70038194  .00000000  00000+0  00000-0 0  9996
2 10058  99.3000  84.0000 0000000   0.0000 132.0000 13.72670257    16
CTC1_L_00570008-04
1 10059U 22156UD  26075.70038194  .00000000  00000+0  00000-0 0  9992
2 10059  99.3000  84.0000 0000000   0.0000 177.0000 13.72670257    16
CTC1_L_00570008-05
1 10060U 22254YW  26075.70038194  .00000000  00000+0  00000-0 0  9993
2 10060  99.3000  84.0000 0000000   0.0000 222.0000 13.72670257    19
CTC1_L_00570008-06
1 10061U 23443CI  26075.70038194  .00000000  00000+0  00000-0 0  9995
2 10061  99.3000  84.0000 0000000   0.0000 267.0000 13.72670257    19
